[
    {
        "Altitude(m)": 715046.2368515136,
        "Argument of Periapsis(deg)": 0.004556048474650827,
        "Eccentricity": 0.0,
        "Inclination(deg)": 45.0,
        "Latitude(deg)": -38.304430414639626,
        "Longitude(deg)": -12.070833505304122,
        "Mean Anomaly(deg)": -60.841213341007624,
        "RAAN(deg)": 139.9956992234167,
        "Satellite Name": "Constellation 1 634",
        "Satellite Number": 634,
        "Semi-Major Axis(m)": 7083131.272910544,
        "Time(s)": 76
    },
    {
        "Altitude(m)": 715035.2625589322,
        "Argument of Periapsis(deg)": 0.004615996480896233,
        "Eccentricity": 0.0,
        "Inclination(deg)": 45.0,
        "Latitude(deg)": -38.27783576432671,
        "Longitude(deg)": -12.005716362059788,
        "Mean Anomaly(deg)": -60.78051220075777,
        "RAAN(deg)": 139.99564263425114,
        "Satellite Name": "Constellation 1 634",
        "Satellite Number": 634,
        "Semi-Major Axis(m)": 7083131.272910544,
        "Time(s)": 77
    },
    {
        "Altitude(m)": 715024.2722827219,
        "Argument of Periapsis(deg)": 0.004675944487141638,
        "Eccentricity": 0.0,
        "Inclination(deg)": 45.0,
        "Latitude(deg)": -38.25120015091605,
        "Longitude(deg)": -11.940649599616323,
        "Mean Anomaly(deg)": -60.71981106050791,
        "RAAN(deg)": 139.9955860450856,
        "Satellite Name": "Constellation 1 634",
        "Satellite Number": 634,
        "Semi-Major Axis(m)": 7083131.272910544,
        "Time(s)": 78
    },
    {
        "Altitude(m)": 715013.2660627629,
        "Argument of Periapsis(deg)": 0.004735892493387044,
        "Eccentricity": 0.0,
        "Inclination(deg)": 45.0,
        "Latitude(deg)": -38.224523642240975,
        "Longitude(deg)": -11.875633210245267,
        "Mean Anomaly(deg)": -60.65910992025793,
        "RAAN(deg)": 139.99552945592,
        "Satellite Name": "Constellation 1 634",
        "Satellite Number": 634,
        "Semi-Major Axis(m)": 7083131.272910544,
        "Time(s)": 79
    },
    {
        "Altitude(m)": 715002.2439389759,
        "Argument of Periapsis(deg)": 0.004795840499632449,
        "Eccentricity": 0.0,
        "Inclination(deg)": 45.0,
        "Latitude(deg)": -38.19780630610572,
        "Longitude(deg)": -11.810667185866691,
        "Mean Anomaly(deg)": -60.59840878000803,
        "RAAN(deg)": 139.99547286675445,
        "Satellite Name": "Constellation 1 634",
        "Satellite Number": 634,
        "Semi-Major Axis(m)": 7083131.272910544,
        "Time(s)": 80
    },
    {
        "Altitude(m)": 714991.2059513547,
        "Argument of Periapsis(deg)": 0.004855788505877855,
        "Eccentricity": 0.0,
        "Inclination(deg)": 45.0,
        "Latitude(deg)": -38.17104821028486,
        "Longitude(deg)": -11.745751518050417,
        "Mean Anomaly(deg)": -60.53770763975814,
        "RAAN(deg)": 139.99541627758887,
        "Satellite Name": "Constellation 1 634",
        "Satellite Number": 634,
        "Semi-Major Axis(m)": 7083131.272910544,
        "Time(s)": 81
    },
    {
        "Altitude(m)": 714980.1521399417,
        "Argument of Periapsis(deg)": 0.00491573651212326,
        "Eccentricity": 0.0,
        "Inclination(deg)": 45.0,
        "Latitude(deg)": -38.14424942252307,
        "Longitude(deg)": -11.680886366114361,
        "Mean Anomaly(deg)": -60.477006499508256,
        "RAAN(deg)": 139.9953596884233,
        "Satellite Name": "Constellation 1 634",
        "Satellite Number": 634,
        "Semi-Major Axis(m)": 7083131.272910544,
        "Time(s)": 82
    },
    {
        "Altitude(m)": 714969.0825448274,
        "Argument of Periapsis(deg)": 0.004975684518368666,
        "Eccentricity": 0.0,
        "Inclination(deg)": 45.0,
        "Latitude(deg)": -38.11741001053382,
        "Longitude(deg)": -11.616071384737916,
        "Mean Anomaly(deg)": -60.41630535925832,
        "RAAN(deg)": 139.9953030992577,
        "Satellite Name": "Constellation 1 634",
        "Satellite Number": 634,
        "Semi-Major Axis(m)": 7083131.272910544,
        "Time(s)": 83
    },
    {
        "Altitude(m)": 714957.9972061552,
        "Argument of Periapsis(deg)": 0.005035632524614072,
        "Eccentricity": 0.0,
        "Inclination(deg)": 45.0,
        "Latitude(deg)": -38.09053004200045,
        "Longitude(deg)": -11.551306732545937,
        "Mean Anomaly(deg)": -60.35560421900844,
        "RAAN(deg)": 139.99524651009216,
        "Satellite Name": "Constellation 1 634",
        "Satellite Number": 634,
        "Semi-Major Axis(m)": 7083131.272910544,
        "Time(s)": 84
    },
    {
        "Altitude(m)": 714946.8961641351,
        "Argument of Periapsis(deg)": 0.0050955805308594785,
        "Eccentricity": 0.0,
        "Inclination(deg)": 45.0,
        "Latitude(deg)": -38.06360958457474,
        "Longitude(deg)": -11.486592399721506,
        "Mean Anomaly(deg)": -60.29490307875859,
        "RAAN(deg)": 139.99518992092658,
        "Satellite Name": "Constellation 1 634",
        "Satellite Number": 634,
        "Semi-Major Axis(m)": 7083131.272910544,
        "Time(s)": 85
    },
    {
        "Altitude(m)": 714935.7794590183,
        "Argument of Periapsis(deg)": 0.005155528537104883,
        "Eccentricity": 0.0,
        "Inclination(deg)": 45.0,
        "Latitude(deg)": -38.03664870587659,
        "Longitude(deg)": -11.421928376104697,
        "Mean Anomaly(deg)": -60.23420193850868,
        "RAAN(deg)": 139.99513333176102,
        "Satellite Name": "Constellation 1 634",
        "Satellite Number": 634,
        "Semi-Major Axis(m)": 7083131.272910544,
        "Time(s)": 86
    },
    {
        "Altitude(m)": 714924.647131109,
        "Argument of Periapsis(deg)": 0.0052154765433502885,
        "Eccentricity": 0.0,
        "Inclination(deg)": 45.0,
        "Latitude(deg)": -38.00964747349379,
        "Longitude(deg)": -11.357314651193922,
        "Mean Anomaly(deg)": -60.17350079825875,
        "RAAN(deg)": 139.99507674259544,
        "Satellite Name": "Constellation 1 634",
        "Satellite Number": 634,
        "Semi-Major Axis(m)": 7083131.272910544,
        "Time(s)": 87
    },
    {
        "Altitude(m)": 714913.4992207795,
        "Argument of Periapsis(deg)": 0.005275424549595694,
        "Eccentricity": 0.0,
        "Inclination(deg)": 45.0,
        "Latitude(deg)": -37.98260595498153,
        "Longitude(deg)": -11.292751214147437,
        "Mean Anomaly(deg)": -60.112799658008804,
        "RAAN(deg)": 139.99502015342986,
        "Satellite Name": "Constellation 1 634",
        "Satellite Number": 634,
        "Semi-Major Axis(m)": 7083131.272910544,
        "Time(s)": 88
    },
    {
        "Altitude(m)": 714902.3357684345,
        "Argument of Periapsis(deg)": 0.0053353725558411,
        "Eccentricity": 0.0,
        "Inclination(deg)": 45.0,
        "Latitude(deg)": -37.955524217862376,
        "Longitude(deg)": -11.228238221882057,
        "Mean Anomaly(deg)": -60.05209851775895,
        "RAAN(deg)": 139.9949635642643,
        "Satellite Name": "Constellation 1 634",
        "Satellite Number": 634,
        "Semi-Major Axis(m)": 7083131.272910544,
        "Time(s)": 89
    },
    {
        "Altitude(m)": 714891.1568145476,
        "Argument of Periapsis(deg)": 0.005395320562086505,
        "Eccentricity": 0.0,
        "Inclination(deg)": 45.0,
        "Latitude(deg)": -37.92840232962439,
        "Longitude(deg)": -11.163775326685407,
        "Mean Anomaly(deg)": -59.991397377509074,
        "RAAN(deg)": 139.99490697509873,
        "Satellite Name": "Constellation 1 634",
        "Satellite Number": 634,
        "Semi-Major Axis(m)": 7083131.272910544,
        "Time(s)": 90
    },
    {
        "Altitude(m)": 714879.9623996366,
        "Argument of Periapsis(deg)": 0.00545526856833191,
        "Eccentricity": 0.0,
        "Inclination(deg)": 45.0,
        "Latitude(deg)": -37.90124035772277,
        "Longitude(deg)": -11.099362684800775,
        "Mean Anomaly(deg)": -59.930696237259134,
        "RAAN(deg)": 139.99485038593318,
        "Satellite Name": "Constellation 1 634",
        "Satellite Number": 634,
        "Semi-Major Axis(m)": 7083131.272910544,
        "Time(s)": 91
    },
    {
        "Altitude(m)": 714868.7525642754,
        "Argument of Periapsis(deg)": 0.005515216574577317,
        "Eccentricity": 0.0,
        "Inclination(deg)": 45.0,
        "Latitude(deg)": -37.87403836957828,
        "Longitude(deg)": -11.035000284040045,
        "Mean Anomaly(deg)": -59.86999509700925,
        "RAAN(deg)": 139.99479379676757,
        "Satellite Name": "Constellation 1 634",
        "Satellite Number": 634,
        "Semi-Major Axis(m)": 7083131.272910544,
        "Time(s)": 92
    },
    {
        "Altitude(m)": 714857.5273490882,
        "Argument of Periapsis(deg)": 0.005575164580822722,
        "Eccentricity": 0.0,
        "Inclination(deg)": 45.0,
        "Latitude(deg)": -37.84679643257699,
        "Longitude(deg)": -10.97068811188176,
        "Mean Anomaly(deg)": -59.80929395675941,
        "RAAN(deg)": 139.99473720760201,
        "Satellite Name": "Constellation 1 634",
        "Satellite Number": 634,
        "Semi-Major Axis(m)": 7083131.272910544,
        "Time(s)": 93
    },
    {
        "Altitude(m)": 714846.2867947548,
        "Argument of Periapsis(deg)": 0.005635112587068129,
        "Eccentricity": 0.0,
        "Inclination(deg)": 45.0,
        "Latitude(deg)": -37.81951461406977,
        "Longitude(deg)": -10.906426155472847,
        "Mean Anomaly(deg)": -59.74859281650946,
        "RAAN(deg)": 139.99468061843646,
        "Satellite Name": "Constellation 1 634",
        "Satellite Number": 634,
        "Semi-Major Axis(m)": 7083131.272910544,
        "Time(s)": 94
    }
]